[{"OBJECT_NAME":"NUSTAR","OBJECT_ID":"2012-031A","EPOCH":"2026-03-10T00:00:02.999808","MEAN_MOTION":15.07728841,"ECCENTRICITY":0.00071224,"INCLINATION":6.0266,"RA_OF_ASC_NODE":57.5732,"ARG_OF_PERICENTER":70.6924,"MEAN_ANOMALY":331.0724,"EPHEMERIS_TYPE":0,"CLASSIFICATION_TYPE":"U","NORAD_CAT_ID":38358,"ELEMENT_SET_NO":999,"REV_AT_EPOCH":130,"BSTAR":0.0011080621,"MEAN_MOTION_DOT":0.00018332,"MEAN_MOTION_DDOT":0},{"OBJECT_NAME":"STARLINK-3182","OBJECT_ID":"2022-010P","EPOCH":"2026-03-09T21:28:49.025568","MEAN_MOTION":15.08846899,"ECCENTRICITY":0.00012033,"INCLINATION":53.2172,"RA_OF_ASC_NODE":278.1992,"ARG_OF_PERICENTER":94.4875,"MEAN_ANOMALY":265.6255,"EPHEMERIS_TYPE":0,"CLASSIFICATION_TYPE":"U","NORAD_CAT_ID":51469,"ELEMENT_SET_NO":999,"REV_AT_EPOCH":22685,"BSTAR":7.38792e-6,"MEAN_MOTION_DOT":-1.7e-6,"MEAN_MOTION_DDOT":0}]
